NORAD_CAT_ID,OBJECT_NAME,OBJECT_TYPE,EPOCH,MEAN_MOTION,ECCENTRICITY,INCLINATION,RA_OF_ASC_NODE,ARG_OF_PERICENTER,MEAN_ANOMALY,BSTAR,MEAN_MOTION_DOT,MEAN_MOTION_DDOT,TLE_LINE0,TLE_LINE1,TLE_LINE2,SEMIMAJOR_AXIS,PERIOD,APOGEE,PERIGEE,DECAYED
56465.0,STARLINK-6054,PAYLOAD,2023-11-12 14:00:01,15.28604377,0.0003399,70.001,84.166,271.81,313.7743,-0.00031597,-8.932e-05,0.0,0 STARLINK-6054,1 56465U 23064T   23316.58334491 -.00008932  00000-0 -31597-3 0  9995,2 56465  70.0010  84.1660 0003399 271.8100 313.7743 15.28604377 29512,6858.12,94.204,482.317,477.654,0.0
56465.0,STARLINK-6054,PAYLOAD,2023-11-12 22:00:00,15.28635584,0.0003334,70.0008,83.2855,273.5964,345.7676,-0.0024552,-0.00068072,0.0,0 STARLINK-6054,1 56465U 23064T   23316.91667824 -.00068072  00000-0 -24552-2 0  9994,2 56465  70.0008  83.2855 0003334 273.5964 345.7676 15.28635584  5991,6858.027,94.202,482.179,477.606,0.0
56465.0,STARLINK-6054,PAYLOAD,2023-11-13 11:00:13,15.28601802,0.0003399,69.9987,81.8545,272.5834,87.4952,2.8987e-06,-4.6e-07,0.0,0 STARLINK-6054,1 56465U 23064T   23317.45849270 -.00000046  00000-0  28987-5 0  9996,2 56465  69.9987  81.8545 0003399 272.5834  87.4952 15.28601802 29292,6858.128,94.204,482.324,477.662,0.0
56465.0,STARLINK-6054,PAYLOAD,2023-11-13 12:34:27,15.28601683,0.0003397,69.9988,81.6816,272.4906,87.5879,2.4417e-06,-5.8e-07,0.0,0 STARLINK-6054,1 56465U 23064T   23317.52393119 -.00000058  00000-0  24417-5 0  9997,2 56465  69.9988  81.6816 0003397 272.4906  87.5879 15.28601683 29655,6858.129,94.204,482.323,477.664,0.0
56465.0,STARLINK-6054,PAYLOAD,2023-11-14 12:07:55,15.28599745,0.0003432,69.9989,79.0889,274.6921,85.3862,5.9929e-06,4.1e-07,0.0,0 STARLINK-6054,1 56465U 23064T   23318.50550839  .00000041  00000-0  59929-5 0  9997,2 56465  69.9989  79.0889 0003432 274.6921  85.3862 15.28599745 29459,6858.134,94.204,482.353,477.646,0.0
56465.0,STARLINK-6054,PAYLOAD,2023-11-15 11:41:23,15.28601678,0.0003018,69.9991,76.4953,265.6832,94.3997,1.5415e-05,3.04e-06,0.0,0 STARLINK-6054,1 56465U 23064T   23319.48708229  .00000304  00000-0  15415-4 0  9996,2 56465  69.9991  76.4953 0003018 265.6832  94.3997 15.28601678 29959,6858.129,94.204,482.063,477.924,0.0
56465.0,STARLINK-6054,PAYLOAD,2023-11-15 17:58:19,15.28600966,0.0003347,69.9989,75.8039,273.6549,86.4242,1.0742e-05,1.73e-06,0.0,0 STARLINK-6054,1 56465U 23064T   23319.74883728  .00000173  00000-0  10742-4 0  9995,2 56465  69.9989  75.8039 0003347 273.6549  86.4242 15.28600966 29643,6858.131,94.204,482.291,477.7,0.0
56465.0,STARLINK-6054,PAYLOAD,2023-11-16 09:40:38,15.28601457,0.0003426,69.9989,74.0751,276.3977,83.6808,1.2845e-05,2.32e-06,0.0,0 STARLINK-6054,1 56465U 23064T   23320.40322082  .00000232  00000-0  12845-4 0  9993,2 56465  69.9989  74.0751 0003426 276.3977  83.6808 15.28601457 29742,6858.129,94.204,482.344,477.645,0.0
56465.0,STARLINK-6054,PAYLOAD,2023-11-16 17:31:47,15.286147,0.0003533,69.9992,73.2109,276.4006,83.6766,-9.3319e-05,-2.73e-05,0.0,0 STARLINK-6054,1 56465U 23064T   23320.73041038 -.00002730  00000-0 -93319-4 0  9990,2 56465  69.9992  73.2109 0003533 276.4006  83.6766 15.28614700 30141,6858.09,94.203,482.378,477.532,0.0
56465.0,STARLINK-6054,PAYLOAD,2023-11-17 09:14:47,15.28104994,0.0003463,69.9992,71.4832,281.4008,78.6777,-0.0022876,-0.00062464,0.0,0 STARLINK-6054,1 56465U 23064T   23321.38527197 -.00062464  00000-0 -22876-2 0  9995,2 56465  69.9992  71.4832 0003463 281.4008  78.6777 15.28104994 30240,6859.615,94.234,483.855,479.104,0.0
56465.0,STARLINK-6054,PAYLOAD,2023-11-17 13:57:43,15.2797912,0.0002157,69.9993,70.9655,256.3348,103.7586,-0.0027734,-0.00075274,0.0,0 STARLINK-6054,1 56465U 23064T   23321.58175659 -.00075274  00000-0 -27734-2 0  9990,2 56465  69.9993  70.9655 0002157 256.3348 103.7586 15.27979120 29926,6859.991,94.242,483.336,480.377,0.0
56465.0,STARLINK-6054,PAYLOAD,2023-11-19 06:52:57,15.25430529,0.0003064,69.9993,66.4837,260.7846,99.298,-0.0091486,-0.0022511,0.0,0 STARLINK-6054,1 56465U 23064T   23323.28678169 -.00225110  00000-0 -91486-2 0  9994,2 56465  69.9993  66.4837 0003064 260.7846  99.2980 15.25430529 30537,6867.63,94.4,491.599,487.391,0.0
56465.0,STARLINK-6054,PAYLOAD,2023-11-19 13:11:00,15.25131008,0.0002939,69.9992,65.7954,293.2636,66.8227,-0.0099824,-0.0024284,0.0,0 STARLINK-6054,1 56465U 23064T   23323.54931416 -.00242840  00000-0 -99824-2 0  9993,2 56465  69.9992  65.7954 0002939 293.2636  66.8227 15.25131008 30226,6868.529,94.418,492.413,488.375,0.0
56465.0,STARLINK-6054,PAYLOAD,2023-11-19 22:00:00,15.22735641,0.0003242,70.0012,64.829,268.9591,307.9597,-0.044931,-0.00970481,0.0,0 STARLINK-6054,1 56465U 23064T   23323.91667824 -.00970481  00000-0 -44931-1 0  9990,2 56465  70.0012  64.8290 0003242 268.9591 307.9597 15.22735641 30636,6875.73,94.567,499.824,495.366,0.0
56465.0,STARLINK-6054,PAYLOAD,2023-11-20 14:00:01,15.21396671,0.0003352,70.0015,63.0851,268.7126,0.0871,-0.043542,-0.00908673,0.0,0 STARLINK-6054,1 56465U 23064T   23324.58334491 -.00908673  00000-0 -43542-1 0  9996,2 56465  70.0015  63.0851 0003352 268.7126   0.0871 15.21396671 30739,6879.764,94.65,503.935,499.323,0.0
56465.0,STARLINK-6054,PAYLOAD,2023-11-20 22:00:00,15.20777323,0.0003326,70.0012,62.2144,268.06,25.4901,-0.047591,-0.00970259,0.0,0 STARLINK-6054,1 56465U 23064T   23324.91667824 -.00970259  00000-0 -47591-1 0  9999,2 56465  70.0012  62.2144 0003326 268.0600  25.4901 15.20777323  6018,6881.632,94.688,505.785,501.208,0.0
56465.0,STARLINK-6054,PAYLOAD,2023-11-21 06:00:00,15.20095312,0.0003362,70.0015,61.3447,263.4845,54.0461,-0.044649,-0.00897711,0.0,0 STARLINK-6054,1 56465U 23064T   23325.25001157 -.00897711  00000-0 -44649-1 0  9990,2 56465  70.0015  61.3447 0003362 263.4845  54.0461 15.20095312 30834,6883.69,94.731,507.869,503.241,0.0
56465.0,STARLINK-6054,PAYLOAD,2023-11-21 14:00:01,15.19441262,0.0003393,70.0016,60.4758,269.8727,70.863,-0.046114,-0.00908816,0.0,0 STARLINK-6054,1 56465U 23064T   23325.58334491 -.00908816  00000-0 -46114-1 0  9994,2 56465  70.0016  60.4758 0003393 269.8727  70.8630 15.19441262  6017,6885.665,94.772,509.866,505.194,0.0
56465.0,STARLINK-6054,PAYLOAD,2023-11-22 00:00:00,15.18626545,0.0003271,70.0016,59.3908,268.7773,189.8545,-0.047887,-0.00920749,0.0,0 STARLINK-6054,1 56465U 23064T   23326.00001157 -.00920749  00000-0 -47887-1 0  9999,2 56465  70.0016  59.3908 0003271 268.7773 189.8545 15.18626545  5827,6888.128,94.823,512.246,507.739,0.0
56465.0,STARLINK-6054,PAYLOAD,2023-11-22 06:00:00,15.18140609,0.0003358,70.0017,58.7407,265.1794,119.5928,-0.04743,-0.00900755,0.0,0 STARLINK-6054,1 56465U 23064T   23326.25001157 -.00900755  00000-0 -47430-1 0  9995,2 56465  70.0017  58.7407 0003358 265.1794 119.5928 15.18140609 30998,6889.597,94.853,513.776,509.149,0.0
56465.0,STARLINK-6054,PAYLOAD,2023-11-22 14:00:01,15.17484123,0.000336,70.0019,57.8744,271.5133,134.1168,-0.048768,-0.00908229,0.0,0 STARLINK-6054,1 56465U 23064T   23326.58334491 -.00908229  00000-0 -48768-1 0  9990,2 56465  70.0019  57.8744 0003360 271.5133 134.1168 15.17484123  5919,6891.584,94.894,515.765,511.134,0.0
56465.0,STARLINK-6054,PAYLOAD,2023-11-22 22:00:00,15.16857158,0.0003271,70.0017,57.0089,270.2025,155.4888,-0.05275,-0.00960588,0.0,0 STARLINK-6054,1 56465U 23064T   23326.91667824 -.00960588  00000-0 -52750-1 0  9998,2 56465  70.0017  57.0089 0003271 270.2025 155.4888 15.16857158 31092,6893.483,94.933,517.603,513.093,0.0
56465.0,STARLINK-6054,PAYLOAD,2023-11-23 00:00:00,15.1666764,0.0003172,70.0018,56.7928,267.8788,252.7151,-0.05043,-0.00916724,0.0,0 STARLINK-6054,1 56465U 23064T   23327.00001157 -.00916724  00000-0 -50430-1 0  9996,2 56465  70.0018  56.7928 0003172 267.8788 252.7151 15.16667640  5987,6894.057,94.945,518.109,513.736,0.0
56465.0,STARLINK-6054,PAYLOAD,2023-11-23 14:00:01,15.15524943,0.0003272,70.0022,55.2811,272.153,191.3331,-0.051318,-0.00903906,0.0,0 STARLINK-6054,1 56465U 23064T   23327.58334491 -.00903906  00000-0 -51318-1 0  9993,2 56465  70.0022  55.2811 0003272 272.1530 191.3331 15.15524943 31199,6897.522,95.017,521.644,517.13,0.0
56465.0,STARLINK-6054,PAYLOAD,2023-11-23 22:00:00,15.14897512,0.0003178,70.002,54.4183,269.8528,211.3476,-0.055501,-0.00956063,0.0,0 STARLINK-6054,1 56465U 23064T   23327.91667824 -.00956063  00000-0 -55501-1 0  9999,2 56465  70.0020  54.4183 0003178 269.8528 211.3476 15.14897512  5889,6899.427,95.056,523.484,519.099,0.0
56465.0,STARLINK-6054,PAYLOAD,2023-11-24 06:00:02,15.14233458,0.0003094,70.0025,53.5566,265.2228,232.9738,-0.05369,-0.00911079,0.0,0 STARLINK-6054,1 56465U 23064T   23328.25002315 -.00911079  00000-0 -53690-1 0  9990,2 56465  70.0025  53.5566 0003094 265.2228 232.9738 15.14233458 31290,6901.444,95.098,525.444,521.173,0.0
56465.0,STARLINK-6054,PAYLOAD,2023-11-24 14:00:01,15.13761101,0.0002436,70.0025,52.6955,272.6363,241.8365,-0.053625,-0.00898745,0.0,0 STARLINK-6054,1 56465U 23064T   23328.58334491 -.00898745  00000-0 -53625-1 0  9991,2 56465  70.0025  52.6955 0002436 272.6363 241.8365 15.13761101 31344,6902.879,95.127,526.426,523.063,0.0
56465.0,STARLINK-6054,PAYLOAD,2023-11-24 22:00:00,15.12727399,0.0002533,70.0023,51.8354,268.5102,261.3037,-0.043526,-0.00712269,0.0,0 STARLINK-6054,1 56465U 23064T   23328.91667824 -.00712269  00000-0 -43526-1 0  9992,2 56465  70.0023  51.8354 0002533 268.5102 261.3037 15.12727399 31397,6906.024,95.192,529.638,526.139,0.0
56465.0,STARLINK-6054,PAYLOAD,2023-11-25 14:00:01,15.11608158,0.0003019,70.0027,50.118,271.2656,286.8089,-0.05678,-0.00896191,0.0,0 STARLINK-6054,1 56465U 23064T   23329.58334491 -.00896191  00000-0 -56780-1 0  9990,2 56465  70.0027  50.1180 0003019 271.2656 286.8089 15.11608158  5980,6909.432,95.263,533.383,529.211,0.0
56465.0,STARLINK-6054,PAYLOAD,2023-11-26 00:00:00,15.10785277,0.0003206,70.0026,49.0463,266.1447,38.0956,-0.058059,-0.0089572,0.0,0 STARLINK-6054,1 56465U 23064T   23330.00001157 -.00895720  00000-0 -58059-1 0  9997,2 56465  70.0026  49.0463 0003206 266.1447  38.0956 15.10785277  6055,6911.941,95.315,536.022,531.59,0.0
